     3.00           N: GNSS NAV DATA    E: Galileo          RINEX VERSION / TYPE
PREC2NAV                                20121215 063321 UTC PGM / RUN BY / DATE 
SOURCE: data/tum%W%D.sp3                                    COMMENT             
                                                            END OF HEADER       
E11 2012 11 19  0  0  0  .577490303480E-03  .386701092308E-09  .000000000000E+00
      .100000000000E+01 -.607902381253E+02  .316721713773E-08 -.199955257420E+01
     -.278873050359E-05  .123664811015E-03  .112223247810E-04  .544061475713E+04
      .864000000000E+05 -.108181409111E-06  .107044480294E+01  .250361672864E-06
      .956312267061E+00  .943800115239E+02  .162018539135E+01 -.573125567580E-08
      .188022212898E-09  .000000000000E+00  .171500000000E+04  .000000000000E+00
      .240000000000E+01  .000000000000E+00  .000000000000E+00  .000000000000E+00
      .900000000000E+05  .000000000000E+00
E12 2012 11 19  0  0  0  .539641652000E-03  .852779769231E-10  .000000000000E+00
      .100000000000E+01 -.669637696179E+02  .311621768835E-08 -.295873992603E+01
     -.304809332791E-05  .737116542186E-04  .106581190286E-04  .544061625087E+04
      .864000000000E+05 -.220176051722E-06  .107041701451E+01 -.341900818557E-06
      .956323966833E+00  .109691644086E+03 -.299980010003E+01 -.580657341732E-08
      .364590960906E-09  .000000000000E+00  .171500000000E+04  .000000000000E+00
      .240000000000E+01  .000000000000E+00  .000000000000E+00  .000000000000E+00
      .900000000000E+05  .000000000000E+00
E11 2012 11 19  2  0  0  .580273194640E-03  .386420761538E-09  .000000000000E+00
      .200000000000E+01 -.676462714757E+02  .293611062868E-08 -.109193354534E+01
     -.311493842794E-05  .123109490159E-03  .107489390797E-04  .544061855196E+04
      .936000000000E+05  .315264258606E-07  .107040454235E+01  .170429580673E-07
      .956315338635E+00  .108472985696E+03  .160518769507E+01 -.548856950734E-08
      .250129350429E-09  .000000000000E+00  .171500000000E+04  .000000000000E+00
      .240000000000E+01  .000000000000E+00  .000000000000E+00  .000000000000E+00
      .972000000000E+05  .000000000000E+00
E12 2012 11 19  2  0  0  .540254596640E-03  .850594692308E-10  .000000000000E+00
      .200000000000E+01 -.937767337528E+02  .298940266530E-08 -.209785285616E+01
     -.428671950152E-05  .766830820256E-04  .105666815245E-04  .544060836055E+04
      .936000000000E+05 -.580351883267E-07  .107037902931E+01  .400408367460E-07
      .956327727799E+00  .112418793162E+03 -.296806456494E+01 -.542445984502E-08
      .215762711347E-09  .000000000000E+00  .171500000000E+04  .000000000000E+00
      .240000000000E+01  .000000000000E+00  .000000000000E+00  .000000000000E+00
      .972000000000E+05  .000000000000E+00
E11 2012 11 19  4  0  0  .583055374400E-03  .386415148718E-09  .000000000000E+00
      .300000000000E+01 -.960765463931E+02  .300804641380E-08 -.221392426207E+00
     -.439449644181E-05  .119910489930E-03  .104454138228E-04  .544060989971E+04
      .100800000000E+06 -.882110231203E-07  .107036602046E+01  .350974973727E-07
      .956317162206E+00  .116171550807E+03  .162726919331E+01 -.541391404799E-08
      .156809455968E-09  .000000000000E+00  .171500000000E+04  .000000000000E+00
      .240000000000E+01  .000000000000E+00  .000000000000E+00  .000000000000E+00
      .104400000000E+06  .000000000000E+00
E12 2012 11 19  4  0  0  .540866928360E-03  .850331384615E-10  .000000000000E+00
      .300000000000E+01 -.108388947722E+03  .296607857955E-08 -.116868710248E+01
     -.497197059028E-05  .772881003669E-04  .114700900810E-04  .544061411499E+04
      .100800000000E+06  .516042894518E-08  .107034093111E+01 -.106610871936E-06
      .956328722105E+00  .954443903613E+02 -.300460551248E+01 -.544756323502E-08
      .726346005782E-10  .000000000000E+00  .171500000000E+04  .000000000000E+00
      .240000000000E+01  .000000000000E+00  .000000000000E+00  .000000000000E+00
      .104400000000E+06  .000000000000E+00
E11 2012 11 19  6  0  0  .585837710640E-03  .386422715385E-09  .000000000000E+00
      .400000000000E+01 -.118469721586E+03  .295465501566E-08  .659571127615E+00
     -.546802662931E-05  .124159843356E-03  .115905962229E-04  .544061914663E+04
      .108000000000E+06  .378236487707E-07  .107032804209E+01 -.888973841826E-07
      .956317470662E+00  .932506786821E+02  .163892834918E+01 -.546712725222E-08
     -.404965984088E-11  .000000000000E+00  .171500000000E+04  .000000000000E+00
      .240000000000E+01  .000000000000E+00  .000000000000E+00  .000000000000E+00
      .111600000000E+06  .000000000000E+00
E12 2012 11 19  6  0  0  .541479216120E-03  .850494076923E-10  .000000000000E+00
      .400000000000E+01 -.112750000682E+03  .308077009575E-08 -.267701527308E+00
     -.530733610366E-05  .764405206583E-04  .120364113683E-04  .544061367821E+04
      .108000000000E+06  .534195589273E-07  .107030186570E+01  .137933952555E-07
      .956328383274E+00  .809807481326E+02 -.301296946834E+01 -.556208844604E-08
      .253334867152E-11  .000000000000E+00  .171500000000E+04  .000000000000E+00
      .240000000000E+01  .000000000000E+00  .000000000000E+00  .000000000000E+00
      .111600000000E+06  .000000000000E+00
E11 2012 11 19  8  0  0  .588619884200E-03  .386424687179E-09  .000000000000E+00
      .500000000000E+01 -.114962375909E+03  .313931027443E-08  .157154501633E+01
     -.546520304344E-05  .123886710176E-03  .122718279130E-04  .544061446612E+04
      .115200000000E+06  .214144912522E-07  .107028864620E+01  .724040138192E-08
      .956316764642E+00  .733869984639E+02 -.466361004903E+01 -.556383649657E-08
     -.432563818727E-10  .000000000000E+00  .171500000000E+04  .000000000000E+00
      .240000000000E+01  .000000000000E+00  .000000000000E+00  .000000000000E+00
      .118800000000E+06  .000000000000E+00
E12 2012 11 19  8  0  0  .542091707760E-03  .850755358974E-10  .000000000000E+00
      .500000000000E+01 -.973123664643E+02  .314155626467E-08  .609083789667E+00
     -.451591919887E-05  .767506484967E-04  .121479343790E-04  .544061475784E+04
      .115200000000E+06  .292456929517E-07  .107026161962E+01 -.467234225177E-08
      .956328244020E+00  .742551718424E+02 -.299712931576E+01 -.559480864122E-08
      .847408631369E-11  .000000000000E+00  .171500000000E+04  .000000000000E+00
      .240000000000E+01  .000000000000E+00  .000000000000E+00  .000000000000E+00
      .118800000000E+06  .000000000000E+00
E11 2012 11 19 10  0  0  .591402116360E-03  .386430279487E-09  .000000000000E+00
      .600000000000E+01 -.878356020152E+02  .313905406994E-08  .244300301175E+01
     -.408256414537E-05  .121624192776E-03  .120532113351E-04  .544062132048E+04
      .122400000000E+06  .265874153741E-07  .107024820570E+01 -.437055931882E-07
      .956316274041E+00  .747038801081E+02 -.464244435598E+01 -.561303940873E-08
     -.186294881199E-10  .000000000000E+00  .171500000000E+04  .000000000000E+00
      .240000000000E+01  .000000000000E+00  .000000000000E+00  .000000000000E+00
      .126000000000E+06  .000000000000E+00
E12 2012 11 19 10  0  0  .542704405880E-03  .851219205128E-10  .000000000000E+00
      .600000000000E+01 -.803981501631E+02  .314565094627E-08  .149815297007E+01
     -.369355608874E-05  .782382943579E-04  .119619200235E-04  .544061678227E+04
      .122400000000E+06  .412238048881E-07  .107022128503E+01  .154463207285E-07
      .956328325100E+00  .804853626619E+02 -.299357672748E+01 -.559569139174E-08
      .196748869900E-10  .000000000000E+00  .171500000000E+04  .000000000000E+00
      .240000000000E+01  .000000000000E+00  .000000000000E+00  .000000000000E+00
      .126000000000E+06  .000000000000E+00
E11 2012 11 19 12  0  0  .594184613280E-03  .386512487179E-09  .000000000000E+00
      .700000000000E+01 -.777590392522E+02  .324408216255E-08 -.295243460607E+01
     -.357398530283E-05  .123696561467E-03  .114289052503E-04  .544061749842E+04
      .129600000000E+06  .499069532522E-07  .107020726532E+01  .453248776560E-07
      .956316321004E+00  .927972972961E+02  .164561392369E+01 -.562026500505E-08
      .553739434511E-10  .000000000000E+00  .171500000000E+04  .000000000000E+00
      .240000000000E+01  .000000000000E+00  .000000000000E+00  .000000000000E+00
      .133200000000E+06  .000000000000E+00
E12 2012 11 19 12  0  0  .543317321080E-03  .851112538461E-10  .000000000000E+00
      .700000000000E+01 -.635778346581E+02  .324817888757E-08  .243701648537E+01
     -.300027779583E-05  .789792696513E-04  .110473584208E-04  .544060923021E+04
      .129600000000E+06 -.246317364000E-07  .107018073106E+01  .285920543551E-07
      .956328809699E+00  .102322341090E+03 -.303981396039E+01 -.556413785602E-08
      .715753666353E-10  .000000000000E+00  .171500000000E+04  .000000000000E+00
      .240000000000E+01  .000000000000E+00  .000000000000E+00  .000000000000E+00
      .133200000000E+06  .000000000000E+00
E11 2012 11 19 14  0  0  .596967263600E-03  .386434689744E-09  .000000000000E+00
      .800000000000E+01 -.681756779209E+02  .327329475099E-08 -.206203014896E+01
     -.317866374592E-05  .125581956274E-03  .108268170219E-04  .544061399141E+04
      .136800000000E+06 -.234001328360E-07  .107016658039E+01  .192327194202E-07
      .956317146208E+00  .107297586791E+03  .164783510426E+01 -.557226067726E-08
      .107611960881E-09  .000000000000E+00  .171500000000E+04  .000000000000E+00
      .240000000000E+01  .000000000000E+00  .000000000000E+00  .000000000000E+00
      .140400000000E+06  .000000000000E+00
